OBJECT_NAME,OBJECT_ID,EPOCH,MEAN_MOTION,ECCENTRICITY,INCLINATION,RA_OF_ASC_NODE,ARG_OF_PERICENTER,MEAN_ANOMALY,EPHEMERIS_TYPE,CLASSIFICATION_TYPE,NORAD_CAT_ID,ELEMENT_SET_NO,REV_AT_EPOCH,BSTAR,MEAN_MOTION_DOT,MEAN_MOTION_DDOT
SAUDISAT 1C (SO-50),2002-058C,2026-06-05T08:30:32.361408,14.83020071,.00754949,64.5503,165.5947,264.6340,94.6150,0,U,27607,999,26270,.13926976E-3,.1035E-4,0
SAUDISAT 2,2004-025F,2026-06-05T19:58:56.689248,14.56677195,.00241528,98.5506,156.5213,334.3740,25.6258,0,U,28371,999,16409,.84964496E-4,.331E-5,0
SAUDISAT 3,2007-012B,2026-06-05T20:01:23.415456,14.71419019,.0013265,98.1451,107.2278,263.3122,96.6575,0,U,31118,999,2607,.6391154E-4,.345E-5,0
PISAT,2016-059B,2026-06-05T18:26:49.873056,14.68963280,.00276448,97.8178,157.7123,240.6103,119.2342,0,U,41784,999,51806,.18231135E-3,.1026E-4,0
FLYING LAPTOP,2017-042G,2026-06-05T23:40:55.960320,15.01069141,.00189154,97.4646,312.9550,158.2895,201.9136,0,U,42831,999,48477,.27315993E-3,.3448E-4,0
SALSAT,2020-068K,2026-06-05T12:02:50.089632,15.29623212,.000921,97.8853,158.8572,354.5258,5.5879,0,U,46495,999,31357,.29741857E-3,.8465E-4,0
